STARLINK-4345
1 53049U 22077G   26090.83335647  .00078271  00000+0  54946-2 0  9999
2 53049  97.6025 271.9129 0001334  87.5751 357.4791 15.04786486  5805
